SZ-21 MODULE            
1 66515U 25246C   25339.25138781  .00038608  00000+0  43192-3 0  9995
2 66515  41.4774  61.7080 0006009 217.7851 142.2567 15.61952064  3278
SHENZHOU-22             
1 66645U 25272A   25339.28337955  .00034071  00000+0  43162-3 0  9992
2 66645  41.4682  61.9587 0009834 333.0075  27.0251 15.58716050262897
CZ-2F R/B               
1 66646U 25272B   25330.47076975  .00449059  75676-5  29319-3 0  9998
2 66646  41.4431 114.9009 0121079 133.7676 227.3272 16.01945612   217
SOYUZ-MS 28             
1 66664U 25275A   25339.25291940  .00014736  00000+0  27197-3 0  9992
2 66664  51.6297 179.5463 0003585 206.2517 153.8291 15.49328184  1284
